    CK22U010  2024 03 25.8803  4.202094  0.999404   78.5860   72.5263  128.1496  20240419   8.5  4.0  C/2022 U1 (Leonard)                                      MPEC 2024-GJ3
    CK22U020  2023 01 14.2451  1.328216  0.986286  147.9373  304.4525   48.2450  20240419  16.0  4.0  C/2022 U2 (ATLAS)                                        MPEC 2023-VM5
    CK22U030  2024 07 28.3370  4.826472  1.002544  189.0845  272.7842   33.6497  20240419   7.5  4.0  C/2022 U3 (Bok)                                          MPEC 2024-GJ3
    CK22U040  2023 08  3.6508  2.898317  0.999026   89.0055  132.9191   52.0383  20240419  10.5  4.0  C/2022 U4 (Bok)                                          MPEC 2023-W26
    CK22V020  2023 11  1.9260  2.063608  0.943936  168.9506  332.8701   98.9027  20240419  12.0  4.0  C/2022 V2 (Lemmon)                                       MPEC 2024-GJ3
    PK22W010  2022 09 16.0105  3.369280  0.516651   17.8547   38.8169   13.4659  20240419  12.5  4.0  P/2022 W1 (Rankin)                                       MPEC 2023-CD7
    CK22W020  2023 03  8.7620  3.123156  0.990905  123.2789  320.4505   63.5213  20240419  11.5  4.0  C/2022 W2 (ATLAS)                                        MPEC 2024-EF7
    CK22W030  2023 06 22.7737  1.397769  0.994996  116.5251  132.2723  103.5628  20240419  13.0  4.0  C/2022 W3 (Leonard)                                      MPEC 2024-C04
    CK22Y010  2022 11 27.4114  2.958306  0.764901  174.7930  285.8981   18.8552  20240419   9.0  4.0  C/2022 Y1 (Hogan)                                        MPEC 2023-M14
    CK22Y020  2023 03 22.5754  2.540689  0.871563  105.4460  216.3512  165.8858  20240419  13.5  4.0  C/2022 Y2 (Lemmon)                                       MPEC 2023-TM6
    CK23A010  2023 03 18.6972  1.834823  0.991802  159.2471  318.2999   94.7382  20240419  14.5  4.0  C/2023 A1 (Leonard)                                      MPEC 2024-GJ3
    CK23A020  2023 01 20.3676  0.946883  0.997856  142.5484   94.4855   94.7101  20240419  13.5  4.0  C/2023 A2 (SWAN)                                         MPEC 2023-J95
    CK23A030  2024 09 27.7432  0.391451  1.000107  308.4900   21.5597  139.1123  20240419   5.0  4.0  C/2023 A3 (Tsuchinshan-ATLAS)                            MPEC 2024-GJ3
    PK23B010  2023 05  1.1818  6.140244  0.129999   81.5434   78.5632   14.5882  20240419   5.5  4.0  P/2023 B1 (PANSTARRS)                                    MPEC 2024-F34
    CK23B020  2023 03 10.4879  1.742509  0.997077  317.3783  218.1190   40.7710  20240419  14.5  4.0  C/2023 B2 (ATLAS)                                        MPEC 2023-XP6
    PK23B030  2020 09  5.5658  3.987758  0.123022  240.1795  154.0030    9.1598  20240419  10.5  4.0  P/2023 B3 (PANSTARRS)                                    MPEC 2023-F81
    CK23C020  2024 11 16.8143  2.368430  0.999274  357.4578  301.0080   48.3171  20240419   7.0  4.0  C/2023 C2 (ATLAS)                                        MPEC 2024-GJ3
    CK23E010  2023 07  1.1049  1.027012  0.946979  105.9327  164.5527   38.2971  20240419  15.5  4.0  C/2023 E1 (ATLAS)                                        MPEC 2024-D33
    CK23F010  2023 06 28.3740  1.708824  0.993536  216.6873   25.2560  131.7477  20240419  16.0  4.0  C/2023 F1 (PANSTARRS)                                    MPEC 2023-N01
    CK23F030  2025 02  2.7171  5.190563  1.004310  265.5351  109.4532  145.9613  20240419   6.0  4.0  C/2023 F3 (ATLAS)                                        MPEC 2024-GJ3
    CK23H010  2024 11 28.3553  4.442491  0.997067  333.8406  292.6340   21.7787  20240419  12.6  4.0  C/2023 H1 (PANSTARRS)                                    MPEC 2023-M14
    CK23H020  2023 10 29.1849  0.894397  0.996326  150.6459  217.0448  113.7536  20240419  14.0  4.0  C/2023 H2 (Lemmon)                                       MPEC 2024-GJ3
    CK23H030  2024 02 18.8899  5.232742  0.615978  193.3149   55.0995    2.4893  20240419  10.0  4.0  C/2023 H3 (PANSTARRS)                                    MPEC 2023-R20
    AK23H040  2023 08  8.8426  2.119732  0.985021   64.9184  230.8133   76.6187  20240419  18.0 22.0  A/2023 H4                                                MPEC 2023-SQ0
    CK23H050  2025 06 30.1550  4.312995  1.000385   60.0787  159.4829   97.8669  20240419   7.0  4.0  C/2023 H5 (Lemmon)                                       MPEC 2024-GJ3
    CK23K010  2023 09  7.7230  2.039389  0.997228  337.4593  223.7056  137.9985  20240419  13.0  4.0  C/2023 K1 (ATLAS)                                        MPEC 2024-GJ3
    PK23M010  2023 12 14.3931  2.826065  0.587224   79.6891  216.8620   12.2883  20240419  13.5  4.0  P/2023 M1 (PANSTARRS)                                    MPEC 2023-N01
    PK23M020  2023 07 25.5565  3.508701  0.369565  243.0701   83.2600   19.7256  20240419  12.5  4.0  P/2023 M2 (PANSTARRS)                                    MPEC 2024-BE0
    PK23M040  2022 04 14.8040  3.929588  0.279138  320.6631  296.2951    7.5925  20240419   7.5  4.0  P/2023 M4 (ATLAS)                                        MPEC 2024-GJ3
    CK23P010  2023 09 17.6436  0.225057  0.996055  116.2951   66.8384  132.4769  20240419  10.0  4.0  C/2023 P1 (Nishimura)                                    MPEC 2024-GJ3
    CK23Q010  2024 12  1.2115  2.575656  1.005060   84.4080    7.1544   36.6559  20240419  10.0  4.0  C/2023 Q1 (PANSTARRS)                                    MPEC 2024-D33
    CK23Q020  2024 06 24.0688  3.209411  0.990724  171.7215   92.6795  104.0575  20240419  11.5  4.0  C/2023 Q2 (PANSTARRS)                                    MPEC 2023-XP6
    CK23R010  2026 04 13.8353  3.569671  1.001276  144.2943   62.5519  149.3157  20240419   6.0  4.0  C/2023 R1 (PANSTARRS)                                    MPEC 2024-D33
    CK23R020  2024 08 12.1448  0.905233  1.000239  337.2956  188.9159   30.6901  20240419  10.5  4.0  C/2023 R2 (PANSTARRS)                                    MPEC 2024-GJ3
    AK23R030  2023 12 18.1834  1.357575  0.997934   86.8952  347.3511   12.0864  20240419  20.0 22.0  A/2023 R3                                                MPEC 2023-UR6
    CK23R03N  2023 01 19.1299  5.174199  0.490901  130.4157  207.0688   10.3567  20240419   7.5  4.0  C/2023 RN3 (ATLAS)                                       MPEC 2024-GJ3
    PK23S010  2025 02 23.6730  2.619999  0.319746  180.1207  317.3628    9.1494  20240419  11.5  4.0  P/2023 S1                                                MPEC 2024-GJ3
    CK23S020  2023 10 15.4076  1.067713  0.993243   78.1211  230.5612   20.4858  20240419  15.0  4.0  C/2023 S2 (ATLAS)                                        MPEC 2023-XP6
    CK23S030  2024 01 19.6245  0.830157  0.970854  281.5725  233.8338  140.4981  20240419  16.0  4.0  C/2023 S3 (Lemmon)                                       MPEC 2024-GJ3
    PK23T010  2024 05 22.9018  2.817295  0.334038  202.8640  249.5744    6.6118  20240419  14.0  4.0  P/2023 T1 (PANSTARRS)                                    MPEC 2024-BE0
    CK23T020  2023 12 22.7924  1.995457  0.991261  111.1955  317.5321   48.5980  20240419  14.5  4.0  C/2023 T2 (Borisov)                                      MPEC 2024-GJ3
    CK23T030  2025 01 25.3769  3.548360  0.995019  302.8485  246.0013   27.2220  20240419   8.5  4.0  C/2023 T3 (Fuls)                                         MPEC 2024-GJ3
    CK23U010  2024 10 12.5908  4.972989  0.997804  255.6057  305.8094  108.1462  20240419   8.0  4.0  C/2023 U1 (Fuls)                                         MPEC 2024-GJ3
    CK23V010  2025 07 13.0776  5.092779  0.999738  103.3097   15.0277  102.0108  20240419   8.5  4.0  C/2023 V1 (Lemmon)                                       MPEC 2024-GJ3
    PK23V020  2024 02  4.0782  3.104386  0.571477  330.5818   95.4725    9.8855  20240419  13.5  4.0  P/2023 V2 (PANSTARRS)                                    MPEC 2024-D33
    CK23V030  2023 08  6.7078  4.472336  0.662878  291.6287   91.4401   40.2914  20240419  11.5  4.0  C/2023 V3 (PANSTARRS)                                    MPEC 2024-A43
    CK23V040  2024 05 30.3638  1.121748  1.001037   50.8517   66.3258   67.1299  20240419  12.0  4.0  C/2023 V4 (Camarasa-Duszanowicz)                         MPEC 2024-GJ3
    CK23V050  2023 12 13.8684  0.846217  1.009284   56.9563   31.5196   73.5794  20240419  21.5  4.0  C/2023 V5 (Leonard)                                      MPEC 2024-GJ3
    PK23V060  2022 12 15.8442  4.381979  0.177876  193.7527  189.9948    3.9757  20240419  11.5  4.0  P/2023 V6 (PANSTARRS)                                    MPEC 2024-AF0
    CK23X010  2023 10 18.0841  0.950507  0.994084  321.4703  137.0117  110.5872  20240419  13.5  3.2  C/2023 X1 (Leonard)                                      MPEC 2024-GJ3
    CK23X020  2025 12 26.0617  5.099973  1.001488   64.4646   66.3122   76.9890  20240419   8.5  3.2  C/2023 X2 (Lemmon)                                       MPEC 2024-DC6
    PK23X030  2024 04 21.9151  3.030121  0.286535   40.8097   62.0135    4.4834  20240419  15.5  4.0  P/2023 X3 (PANSTARRS)                                    MPEC 2024-A43
    CK23X040  2024 05 24.7393  3.658021  0.630878  100.5378   28.7655   11.5948  20240419  12.0  4.0  C/2023 X4 (Hogan)                                        MPEC 2024-EF7
    CK23X070  2025 05 14.8592  4.821269  1.002210  354.3413  119.2083   69.0549  20240419   9.0  4.0  C/2023 X7 (PANSTARRS)                                    MPEC 2024-DA2
    PK23Y010  2023 11 29.7606  2.079804  0.445105   51.4358   78.8570    6.3841  20240419  17.0  4.0  P/2023 Y1 (Gibbs)                                        MPEC 2024-GJ3
    PK23Y020  2023 08  9.8896  2.276072  0.392197   16.8197   79.2298    6.9927  20240419  15.5  4.0  P/2023 Y2 (Gibbs)                                        MPEC 2024-F34
    CK24A010  2025 06 13.6694  3.875852  1.001330  353.2957  112.1390   94.4478  20240419   7.0  4.0  C/2024 A1 (ATLAS)                                        MPEC 2024-GJ3
